{"type":"FeatureCollection","features":[{"type":"Feature","properties":{"kind":"route","name":"Gangsa Loop","network":null,"km":5.03,"osm":"r1994023"},"geometry":{"type":"MultiLineString","coordinates":[[[103.77492,1.39379],[103.77515,1.39411],[103.77564,1.3946]],[[103.77564,1.3946],[103.77601,1.39495],[103.77622,1.39526],[103.77643,1.39608],[103.77654,1.39674],[103.77678,1.39771]],[[103.77678,1.39771],[103.77651,1.39762],[103.77634,1.39763],[103.77585,1.39788],[103.77547,1.3979],[103.77531,1.39794],[103.77497,1.39811]],[[103.77837,1.41057],[103.77832,1.41045],[103.77833,1.41008],[103.77818,1.40947],[103.77829,1.40906],[103.77825,1.40888]],[[103.77825,1.40888],[103.77822,1.40863],[103.77819,1.40855],[103.77811,1.40848],[103.77807,1.40833],[103.77823,1.40813],[103.77834,1.40786],[103.77841,1.40751],[103.7784,1.40741],[103.77846,1.40736],[103.77848,1.40723],[103.77848,1.40704],[103.77837,1.40676],[103.77838,1.40659],[103.77827,1.40619],[103.77827,1.40601],[103.77839,1.40543],[103.77827,1.40518],[103.77826,1.40508],[103.7783,1.40483],[103.77839,1.40469],[103.77858,1.40415],[103.77854,1.40405],[103.77855,1.4039],[103.77829,1.40358],[103.77815,1.40325],[103.77804,1.40317],[103.77801,1.40311],[103.77795,1.40262],[103.77802,1.40227],[103.778,1.40219],[103.77766,1.40151],[103.77758,1.40094],[103.77736,1.40024],[103.77712,1.39985],[103.77711,1.39963],[103.77703,1.39938],[103.77695,1.39931],[103.77687,1.39913],[103.77672,1.39909],[103.77659,1.39893],[103.77634,1.3989],[103.77622,1.39886],[103.77617,1.3988],[103.77621,1.39865],[103.77653,1.39848],[103.77647,1.39828],[103.77629,1.39816],[103.77616,1.39813],[103.77597,1.39818],[103.77588,1.39824],[103.77563,1.39823],[103.77551,1.39831],[103.77527,1.39831],[103.77523,1.39835],[103.77498,1.39825],[103.77497,1.39811]],[[103.77497,1.39811],[103.77481,1.39797],[103.77436,1.39744],[103.77427,1.39695],[103.77433,1.39653],[103.77449,1.39461],[103.77458,1.39426],[103.77469,1.39399],[103.77492,1.39379]],[[103.77492,1.39379],[103.77535,1.39326],[103.77571,1.39301],[103.77582,1.3929],[103.77608,1.39258],[103.7762,1.39237],[103.77626,1.39216],[103.77629,1.39149],[103.77614,1.39075],[103.77615,1.3905],[103.77622,1.39041],[103.77684,1.38996],[103.77722,1.38949],[103.77738,1.38921],[103.77753,1.38879],[103.77759,1.38847],[103.77759,1.38826],[103.77766,1.38774],[103.77797,1.38703],[103.77796,1.38661],[103.77769,1.38629],[103.77697,1.38609],[103.77681,1.386],[103.77671,1.38589],[103.77667,1.3856],[103.77675,1.38519],[103.77677,1.38488],[103.77671,1.38417],[103.7765,1.38371],[103.77645,1.38345],[103.77622,1.38298],[103.77616,1.38279],[103.77611,1.38235],[103.77621,1.38155],[103.77644,1.38078],[103.7765,1.38067],[103.77659,1.38023],[103.77669,1.38011],[103.77705,1.38018],[103.77757,1.38005],[103.77779,1.37991],[103.77804,1.37958],[103.77822,1.37918],[103.77829,1.37897],[103.77832,1.37849]]]}},{"type":"Feature","properties":{"kind":"route","name":"Gangsa Trail","network":null,"km":4.32,"osm":"r1994006"},"geometry":{"type":"MultiLineString","coordinates":[[[103.77837,1.41057],[103.77832,1.41045],[103.77833,1.41008],[103.77818,1.40947],[103.77829,1.40906],[103.77825,1.40888]],[[103.77825,1.40888],[103.77822,1.40863],[103.77819,1.40855],[103.77811,1.40848],[103.77807,1.40833],[103.77823,1.40813],[103.77834,1.40786],[103.77841,1.40751],[103.7784,1.40741],[103.77846,1.40736],[103.77848,1.40723],[103.77848,1.40704],[103.77837,1.40676],[103.77838,1.40659],[103.77827,1.40619],[103.77827,1.40601],[103.77839,1.40543],[103.77827,1.40518],[103.77826,1.40508],[103.7783,1.40483],[103.77839,1.40469],[103.77858,1.40415],[103.77854,1.40405],[103.77855,1.4039],[103.77829,1.40358],[103.77815,1.40325],[103.77804,1.40317],[103.77801,1.40311],[103.77795,1.40262],[103.77802,1.40227],[103.778,1.40219],[103.77766,1.40151],[103.77758,1.40094],[103.77736,1.40024],[103.77712,1.39985],[103.77711,1.39963],[103.77703,1.39938],[103.77695,1.39931],[103.77687,1.39913],[103.77672,1.39909],[103.77659,1.39893],[103.77634,1.3989],[103.77622,1.39886],[103.77617,1.3988],[103.77621,1.39865],[103.77653,1.39848],[103.77647,1.39828],[103.77629,1.39816],[103.77616,1.39813],[103.77597,1.39818],[103.77588,1.39824],[103.77563,1.39823],[103.77551,1.39831],[103.77527,1.39831],[103.77523,1.39835],[103.77498,1.39825],[103.77497,1.39811]],[[103.77497,1.39811],[103.77481,1.39797],[103.77436,1.39744],[103.77427,1.39695],[103.77433,1.39653],[103.77449,1.39461],[103.77458,1.39426],[103.77469,1.39399],[103.77492,1.39379]],[[103.77492,1.39379],[103.77535,1.39326],[103.77571,1.39301],[103.77582,1.3929],[103.77608,1.39258],[103.7762,1.39237],[103.77626,1.39216],[103.77629,1.39149],[103.77614,1.39075],[103.77615,1.3905],[103.77622,1.39041],[103.77684,1.38996],[103.77722,1.38949],[103.77738,1.38921],[103.77753,1.38879],[103.77759,1.38847],[103.77759,1.38826],[103.77766,1.38774],[103.77797,1.38703],[103.77796,1.38661],[103.77769,1.38629],[103.77697,1.38609],[103.77681,1.386],[103.77671,1.38589],[103.77667,1.3856],[103.77675,1.38519],[103.77677,1.38488],[103.77671,1.38417],[103.7765,1.38371],[103.77645,1.38345],[103.77622,1.38298],[103.77616,1.38279],[103.77611,1.38235],[103.77621,1.38155],[103.77644,1.38078],[103.7765,1.38067],[103.77659,1.38023],[103.77669,1.38011],[103.77705,1.38018],[103.77757,1.38005],[103.77779,1.37991],[103.77804,1.37958],[103.77822,1.37918],[103.77829,1.37897],[103.77832,1.37849]]]}},{"type":"Feature","properties":{"kind":"route","name":"Dairy Farm Nature Park","network":"lcn","km":4.02,"osm":"r21066055"},"geometry":{"type":"MultiLineString","coordinates":[[[103.77064,1.35601],[103.77072,1.35599],[103.77089,1.35602],[103.77087,1.35585],[103.771,1.35546],[103.7712,1.35531],[103.77122,1.35526],[103.7712,1.35523],[103.77098,1.35524],[103.7708,1.35519],[103.77072,1.35512],[103.77063,1.35495]],[[103.77063,1.35495],[103.77064,1.35476],[103.77075,1.35444],[103.77074,1.35425],[103.77065,1.3539],[103.77042,1.35347]],[[103.77258,1.34987],[103.77263,1.34989],[103.77265,1.34998],[103.77244,1.3501],[103.77225,1.3503],[103.77188,1.35072],[103.77165,1.35109],[103.77153,1.35114],[103.77134,1.35128],[103.77114,1.35173],[103.77108,1.35208],[103.77084,1.3523],[103.77086,1.35251],[103.77079,1.35281],[103.77075,1.3529],[103.77052,1.35311],[103.77041,1.35329],[103.77039,1.3534],[103.77042,1.35347]],[[103.7726,1.34967],[103.77246,1.34967],[103.77239,1.34974],[103.77244,1.34986],[103.77258,1.34987]],[[103.7745,1.34956],[103.77409,1.34981],[103.77405,1.3498],[103.77405,1.34977],[103.77418,1.34964],[103.77416,1.3496],[103.77394,1.34977],[103.77384,1.34978],[103.77378,1.34969],[103.77383,1.34944],[103.77377,1.34929],[103.77352,1.34913],[103.77332,1.34889],[103.77322,1.34887],[103.77316,1.34891],[103.77311,1.34918],[103.77284,1.34935],[103.77276,1.34959],[103.7726,1.34967]],[[103.7745,1.34956],[103.77469,1.34935],[103.77474,1.3492],[103.77483,1.34906],[103.77496,1.34895],[103.77485,1.3488],[103.77482,1.34867],[103.77502,1.34843],[103.77518,1.34808],[103.77528,1.34797],[103.77577,1.3477],[103.7759,1.34758],[103.77628,1.3474]],[[103.77089,1.35602],[103.77091,1.3561],[103.77083,1.35653]],[[103.77083,1.35653],[103.77079,1.35693],[103.77089,1.35711]],[[103.77089,1.35711],[103.77115,1.35725],[103.77121,1.35733],[103.77118,1.35744],[103.77101,1.35766],[103.77081,1.35784],[103.77067,1.3579],[103.77051,1.35793],[103.77024,1.35787]],[[103.77024,1.35787],[103.77005,1.3579],[103.77001,1.35802],[103.7703,1.35873],[103.77026,1.35876],[103.77019,1.35866],[103.76997,1.3586],[103.76988,1.35866],[103.76997,1.35939],[103.76986,1.35986],[103.76971,1.3603],[103.76972,1.36054]],[[103.76972,1.36054],[103.76967,1.36071],[103.76966,1.36089],[103.76968,1.36104],[103.76976,1.3612],[103.76988,1.36124],[103.77004,1.36124],[103.7705,1.36119],[103.77085,1.36132],[103.77131,1.36138]],[[103.76972,1.36054],[103.76993,1.36106],[103.77004,1.36124]],[[103.77326,1.36164],[103.7733,1.36175],[103.77346,1.3619],[103.77365,1.36194],[103.77392,1.36211],[103.77426,1.36219],[103.77455,1.36231],[103.77487,1.36258],[103.77494,1.36272]],[[103.77494,1.36272],[103.77498,1.36294],[103.77518,1.3632],[103.77528,1.3634],[103.77532,1.36367],[103.77536,1.36367],[103.77543,1.36359],[103.77543,1.36323],[103.77546,1.36312],[103.77552,1.36305],[103.77576,1.36293]],[[103.77576,1.36293],[103.77579,1.36293]],[[103.77579,1.36293],[103.77594,1.36298],[103.77619,1.36318],[103.7763,1.3632],[103.7768,1.36308],[103.77706,1.36277],[103.77716,1.36272],[103.77722,1.36289],[103.77731,1.363]],[[103.77731,1.363],[103.77746,1.36322],[103.7777,1.36335],[103.77784,1.36349],[103.77789,1.36344],[103.77794,1.36317],[103.77803,1.36313],[103.77811,1.36317],[103.77818,1.36315],[103.7782,1.3629],[103.77827,1.36275],[103.7784,1.36269],[103.77857,1.36266]],[[103.77937,1.34638],[103.77913,1.34652],[103.77905,1.34664],[103.7789,1.34675],[103.77873,1.34682],[103.77803,1.34683],[103.77787,1.34697],[103.77766,1.34727]],[[103.77766,1.34727],[103.77748,1.34742],[103.77737,1.34746],[103.77721,1.34746],[103.77706,1.34753],[103.77693,1.34752],[103.77687,1.34742],[103.77677,1.34738],[103.77635,1.34752]]]}},{"type":"Feature","properties":{"kind":"route","name":"Chestnut Trail","network":null,"km":1.94,"osm":"r1994005"},"geometry":{"type":"MultiLineString","coordinates":[[[103.77832,1.37849],[103.7783,1.37812]],[[103.7783,1.37812],[103.77822,1.37805]],[[103.77694,1.37725],[103.77701,1.37729]],[[103.77705,1.3773],[103.77726,1.37692]],[[103.77701,1.37729],[103.77705,1.3773]],[[103.7772,1.3765],[103.77718,1.37672]],[[103.77718,1.37672],[103.7772,1.37681],[103.77732,1.37699],[103.77738,1.37727]],[[103.77832,1.37849],[103.77874,1.37834]],[[103.7783,1.37812],[103.77874,1.37834],[103.7792,1.37843],[103.77955,1.37856],[103.77949,1.3787]],[[103.77822,1.37805],[103.77848,1.37781],[103.77867,1.37769],[103.77903,1.37762],[103.77981,1.37774],[103.78004,1.37784],[103.7803,1.37803],[103.78042,1.37806],[103.7805,1.37802],[103.78061,1.37785]],[[103.78061,1.37785],[103.78063,1.37775],[103.78058,1.37677],[103.78061,1.37649],[103.78086,1.37568],[103.78089,1.37547]],[[103.78089,1.37547],[103.78076,1.37506],[103.7808,1.37487]],[[103.7808,1.37487],[103.78097,1.37473],[103.78128,1.37459],[103.78168,1.37448],[103.78178,1.37439],[103.78174,1.37388],[103.78142,1.37335]],[[103.7814,1.37332],[103.78135,1.37317],[103.78144,1.37283],[103.78147,1.37245],[103.78132,1.37204],[103.78092,1.37146],[103.7808,1.37134],[103.78052,1.37117],[103.78009,1.37115]],[[103.78009,1.37115],[103.77994,1.37114]],[[103.77949,1.3787],[103.7797,1.37865],[103.7798,1.37869],[103.77988,1.37868],[103.78031,1.37845],[103.78045,1.37833],[103.78056,1.37816],[103.78049,1.37803]],[[103.77822,1.37805],[103.7778,1.37761],[103.77744,1.37737],[103.77738,1.37727]]]}},{"type":"Feature","properties":{"kind":"trail","name":"Chestnut Nature Park South Biking Trail","grade":2,"km":1.95,"osm":"w409289823"},"geometry":{"type":"LineString","coordinates":[[103.78001,1.37083],[103.78011,1.37081],[103.78012,1.37075],[103.78008,1.37073],[103.78004,1.37063],[103.78007,1.37056],[103.78022,1.3706],[103.78037,1.3707],[103.78042,1.3706],[103.7804,1.37041],[103.78047,1.37037],[103.78074,1.37035],[103.78099,1.37025],[103.78121,1.37004],[103.78134,1.36984],[103.78129,1.36975],[103.78136,1.36966],[103.78136,1.36958],[103.78132,1.36952],[103.78123,1.36953],[103.78111,1.36962],[103.78121,1.36966],[103.78124,1.36971],[103.78095,1.36979],[103.78077,1.36975],[103.78068,1.36967],[103.78068,1.36963],[103.78077,1.36956],[103.78089,1.36953],[103.78091,1.36947],[103.78087,1.36944],[103.78059,1.36946],[103.78051,1.36939],[103.78049,1.36931],[103.78057,1.36927],[103.78057,1.36922],[103.78046,1.36922],[103.7803,1.3687],[103.78039,1.36873],[103.78046,1.36886],[103.78047,1.36879],[103.78037,1.36846],[103.78034,1.36817],[103.78041,1.36805],[103.78046,1.36811],[103.78047,1.36818],[103.7805,1.36815],[103.7805,1.36804],[103.78058,1.36789],[103.78103,1.36749],[103.78112,1.3673],[103.78115,1.36673],[103.78111,1.36663],[103.78106,1.36666],[103.7811,1.3668],[103.78104,1.3668],[103.78093,1.36658],[103.78104,1.36637],[103.78104,1.3662],[103.78096,1.36592],[103.78082,1.36574],[103.78073,1.36556],[103.78063,1.36557],[103.78059,1.36562],[103.78069,1.36593],[103.78071,1.36613],[103.78068,1.36631],[103.78056,1.36637],[103.78053,1.36645],[103.78045,1.36652],[103.78045,1.36663],[103.78053,1.36674],[103.78023,1.3669],[103.78023,1.36701],[103.7803,1.36722],[103.78018,1.36739],[103.78017,1.36777],[103.78029,1.3678],[103.78029,1.36788],[103.78015,1.36794],[103.78011,1.36801],[103.78018,1.36813],[103.78014,1.3682],[103.78011,1.36855],[103.78004,1.36843],[103.77999,1.36851],[103.78004,1.3689],[103.77996,1.36893],[103.77993,1.36923],[103.77998,1.36937],[103.78032,1.36964],[103.78032,1.36967],[103.78027,1.36969],[103.78006,1.36962],[103.78002,1.36968],[103.78016,1.36985],[103.78034,1.36999],[103.78032,1.37002],[103.78018,1.37003],[103.78005,1.37011],[103.77997,1.37024],[103.7798,1.37022],[103.7798,1.37061],[103.77974,1.37074],[103.77978,1.37078],[103.78001,1.37083]]}},{"type":"Feature","properties":{"kind":"trail","name":null,"grade":2,"km":1.68,"osm":"w48842970"},"geometry":{"type":"LineString","coordinates":[[103.7836,1.36648],[103.78365,1.36637],[103.78357,1.36623],[103.78361,1.36602],[103.78378,1.36583],[103.78417,1.36553],[103.78426,1.36541],[103.78438,1.36533],[103.78459,1.36526],[103.78507,1.36523],[103.78552,1.36552],[103.78555,1.36561],[103.78569,1.36558],[103.78574,1.36563],[103.78578,1.36573],[103.78569,1.36589],[103.78575,1.36597],[103.78638,1.36619],[103.78652,1.36631],[103.78676,1.36639],[103.78759,1.36629],[103.78807,1.36637],[103.78855,1.36694],[103.78885,1.3672],[103.78888,1.36735],[103.78898,1.36746],[103.78901,1.36757],[103.78915,1.36773],[103.78917,1.36782],[103.78909,1.36793],[103.7891,1.36803],[103.78927,1.36814],[103.78939,1.36849],[103.78934,1.36899],[103.78935,1.36911],[103.7894,1.36916],[103.78925,1.36947],[103.78889,1.36985],[103.78866,1.36996],[103.78857,1.36993],[103.7885,1.37001],[103.78841,1.37003],[103.78798,1.36981],[103.78782,1.3698],[103.78755,1.36985],[103.78709,1.36948],[103.78671,1.36896],[103.78653,1.3689],[103.78647,1.3688],[103.78653,1.36836],[103.7866,1.36816],[103.78665,1.3681],[103.78665,1.36801],[103.7866,1.36793],[103.78652,1.36786],[103.78646,1.36774],[103.78622,1.36765],[103.78595,1.36745],[103.786,1.36765]]}},{"type":"Feature","properties":{"kind":"trail","name":"Black Diamond Grade Trail","grade":3,"km":1.51,"osm":"w314335540"},"geometry":{"type":"LineString","coordinates":[[103.94461,1.41549],[103.94471,1.41551],[103.945,1.41542],[103.94528,1.41523],[103.94551,1.41517],[103.94566,1.41508],[103.94596,1.41499],[103.94626,1.41497],[103.94668,1.41476],[103.9468,1.41474],[103.94724,1.4148],[103.94742,1.41493],[103.9475,1.41495],[103.9476,1.41492],[103.94778,1.41473],[103.94833,1.41456],[103.94868,1.41439],[103.94893,1.41439],[103.94934,1.4146],[103.94952,1.41458],[103.94968,1.41464],[103.95014,1.41434],[103.95041,1.4142],[103.95054,1.41419],[103.9511,1.41428],[103.95136,1.41428],[103.9524,1.4148],[103.95286,1.41495],[103.95303,1.41496],[103.95315,1.41493],[103.95322,1.41487],[103.95332,1.4147],[103.9535,1.41455],[103.95364,1.41437],[103.95384,1.41423],[103.95385,1.41418],[103.9537,1.4141],[103.95386,1.41403],[103.95384,1.41394],[103.95373,1.41386],[103.95361,1.41357],[103.95332,1.41309],[103.95328,1.41287],[103.9532,1.41271],[103.95315,1.4127],[103.95313,1.41277],[103.95325,1.41309],[103.9535,1.41357],[103.95356,1.41377],[103.95356,1.41387],[103.9535,1.41401]]}},{"type":"Feature","properties":{"kind":"trail","name":"Blue Square Grade Trail","grade":2,"km":1.4,"osm":"w168820103"},"geometry":{"type":"LineString","coordinates":[[103.95027,1.4095],[103.95029,1.4094],[103.9505,1.40921],[103.95056,1.40909],[103.95058,1.40896],[103.95055,1.40798],[103.95024,1.40734],[103.95009,1.40731],[103.94965,1.40746],[103.94935,1.40776],[103.94925,1.40793],[103.94909,1.40833],[103.94905,1.40856],[103.94918,1.40888],[103.94932,1.40903],[103.9494,1.40917],[103.94947,1.40964],[103.94958,1.40971],[103.94987,1.40968],[103.94998,1.40972],[103.95009,1.40985],[103.95015,1.40999],[103.95027,1.4105],[103.95026,1.41062],[103.95012,1.41085],[103.95011,1.41105],[103.95006,1.41119],[103.94978,1.41162],[103.94964,1.41168],[103.94958,1.41165],[103.94939,1.41115],[103.9494,1.41098],[103.94944,1.41092],[103.94988,1.41065],[103.94997,1.4105],[103.94996,1.41037],[103.94986,1.41021],[103.94987,1.41],[103.94981,1.4099],[103.94969,1.40984],[103.94949,1.40995],[103.94863,1.41079],[103.94849,1.4108],[103.94819,1.41068],[103.94804,1.41066]]}},{"type":"Feature","properties":{"kind":"trail","name":"Double Black Diamond Grade Trail","grade":3,"km":1.37,"osm":"w267000122"},"geometry":{"type":"LineString","coordinates":[[103.94426,1.41257],[103.94414,1.41264],[103.94396,1.41262],[103.9438,1.41273],[103.94364,1.413],[103.9435,1.41313],[103.94344,1.41308],[103.94344,1.41299],[103.94376,1.41261],[103.94373,1.41256],[103.94358,1.41257],[103.94353,1.41261],[103.9434,1.4129],[103.9432,1.41301],[103.94299,1.4132],[103.94295,1.4133],[103.94297,1.41335],[103.94331,1.41351],[103.94338,1.41347],[103.94343,1.41337],[103.9436,1.41327],[103.94367,1.41312],[103.9438,1.41301],[103.94388,1.41299],[103.94396,1.41301],[103.944,1.41311],[103.94399,1.4132],[103.94387,1.41337],[103.94399,1.41366],[103.944,1.41407],[103.94407,1.41417],[103.94416,1.41423],[103.94433,1.41423],[103.94438,1.4143],[103.94439,1.41447],[103.94445,1.41453],[103.94484,1.41479],[103.94506,1.41486],[103.94512,1.41491],[103.94513,1.41498],[103.9451,1.41503],[103.94479,1.41517],[103.94435,1.41495],[103.94397,1.41437],[103.94362,1.41401],[103.94354,1.41383],[103.94345,1.41375],[103.94309,1.41366],[103.94302,1.41367],[103.94297,1.41377],[103.94313,1.41387],[103.94331,1.41426],[103.9435,1.4145],[103.94376,1.41458],[103.94398,1.4149],[103.94428,1.41512],[103.94461,1.41549]]}},{"type":"Feature","properties":{"kind":"trail","name":null,"grade":2,"km":1.34,"osm":"w356589291"},"geometry":{"type":"LineString","coordinates":[[103.78574,1.37079],[103.78595,1.37069],[103.78601,1.3705],[103.786,1.37041],[103.78592,1.37026],[103.78592,1.36994],[103.78585,1.36981],[103.78583,1.36968],[103.78583,1.36954],[103.78591,1.36925],[103.78589,1.36888],[103.78614,1.36807],[103.786,1.36765],[103.78587,1.36767],[103.78567,1.36737],[103.78557,1.36737],[103.78531,1.36726],[103.78475,1.3672],[103.78457,1.36707],[103.78452,1.36689],[103.78415,1.3666],[103.78407,1.36661],[103.78372,1.36647],[103.7836,1.36648],[103.78358,1.36653],[103.7835,1.36656],[103.78323,1.36678],[103.78316,1.3668],[103.78302,1.367],[103.78298,1.36711],[103.78285,1.36726],[103.78269,1.36735],[103.78239,1.3673],[103.78232,1.36745],[103.78233,1.36766],[103.7825,1.36774],[103.78256,1.36781],[103.78258,1.368],[103.78254,1.36815],[103.78226,1.3687],[103.78226,1.36887],[103.78211,1.36903],[103.78208,1.36919],[103.78215,1.3694],[103.78213,1.36956],[103.78188,1.36983],[103.78184,1.36995],[103.78187,1.37078],[103.78182,1.37105]]}},{"type":"Feature","properties":{"kind":"trail","name":"Black Diamond Grade Trail","grade":3,"km":1.33,"osm":"w531762160"},"geometry":{"type":"LineString","coordinates":[[103.9535,1.41401],[103.95317,1.41335],[103.95308,1.41298],[103.9529,1.41273],[103.95283,1.41251],[103.95282,1.41238],[103.95289,1.41209],[103.953,1.41209],[103.95308,1.41223],[103.95316,1.41229],[103.95325,1.41219],[103.95326,1.41203],[103.95332,1.41199],[103.95361,1.41227],[103.9537,1.41293],[103.95386,1.41325],[103.9542,1.41354],[103.95428,1.41364],[103.95433,1.41377],[103.95428,1.41399],[103.95411,1.41426],[103.95411,1.41432],[103.9542,1.41435],[103.95432,1.41434],[103.95442,1.41425],[103.95449,1.41382],[103.95367,1.41214],[103.95318,1.41176],[103.95301,1.4118],[103.95294,1.41175],[103.9529,1.41176],[103.95287,1.41179],[103.95289,1.41186],[103.95286,1.41192],[103.95276,1.41195],[103.95268,1.41192],[103.95264,1.41183],[103.95241,1.41168],[103.95215,1.41127],[103.95205,1.41117],[103.95199,1.4112],[103.95211,1.41145],[103.95207,1.41148],[103.95203,1.41146],[103.95186,1.41119],[103.95139,1.41083],[103.95137,1.41078],[103.95139,1.41072]]}},{"type":"Feature","properties":{"kind":"trail","name":null,"grade":2,"km":0.91,"osm":"w48842969"},"geometry":{"type":"LineString","coordinates":[[103.78176,1.37403],[103.78215,1.37413],[103.78237,1.37423],[103.78264,1.37454],[103.78304,1.37472],[103.78339,1.37466],[103.78448,1.37415],[103.7856,1.37389],[103.78603,1.37385],[103.78617,1.37373],[103.78625,1.37308],[103.78546,1.37083],[103.78553,1.37082],[103.78567,1.3709],[103.78574,1.37079]]}},{"type":"Feature","properties":{"kind":"trail","name":"Black Crawler","grade":3,"km":0.82,"osm":"w441136660"},"geometry":{"type":"LineString","coordinates":[[103.78046,1.37593],[103.78039,1.37613],[103.78037,1.37632],[103.78031,1.37632],[103.78029,1.37609],[103.78021,1.37618],[103.78015,1.37641],[103.78016,1.37654],[103.78003,1.37694],[103.78013,1.37728],[103.78024,1.37735],[103.78037,1.37763],[103.78038,1.37789],[103.78029,1.3779],[103.77998,1.37748],[103.77982,1.3775],[103.77965,1.3774],[103.77957,1.37711],[103.77969,1.37677],[103.77968,1.37662],[103.77976,1.37634],[103.7796,1.37619],[103.77955,1.37625],[103.77959,1.37654],[103.77947,1.37684],[103.7794,1.37686],[103.77938,1.37694],[103.77933,1.37691],[103.77933,1.37682],[103.77926,1.37681],[103.77921,1.3769],[103.77919,1.37703],[103.77889,1.37727],[103.77889,1.37735],[103.77902,1.37728],[103.77909,1.37729],[103.77907,1.37737],[103.77897,1.37754],[103.77884,1.37753]]}},{"type":"Feature","properties":{"kind":"trail","name":"Blue Square Grade Trail","grade":2,"km":0.7,"osm":"w254169453"},"geometry":{"type":"LineString","coordinates":[[103.94804,1.41066],[103.9477,1.4108],[103.94703,1.41147],[103.94692,1.41149],[103.94633,1.41142],[103.94591,1.41154],[103.94573,1.41155],[103.94556,1.41163],[103.9454,1.41161],[103.94534,1.41167],[103.9453,1.41183],[103.94525,1.41189],[103.94507,1.41193],[103.94491,1.41202],[103.94481,1.41202],[103.94452,1.41188],[103.94443,1.41191],[103.94434,1.41199],[103.94424,1.41215],[103.9444,1.41237],[103.94437,1.4125],[103.94433,1.41255],[103.94426,1.41257],[103.94421,1.41255],[103.94408,1.41215],[103.94412,1.41203],[103.94423,1.41188],[103.94447,1.41172],[103.94451,1.41162],[103.9445,1.41155]]}},{"type":"Feature","properties":{"kind":"trail","name":"Slider","grade":2,"km":0.62,"osm":"w262148174"},"geometry":{"type":"LineString","coordinates":[[103.77673,1.3801],[103.77673,1.37969],[103.77679,1.37955],[103.7769,1.37954],[103.77696,1.37946],[103.77714,1.37955],[103.77733,1.37948],[103.7774,1.3794],[103.7774,1.37932],[103.77733,1.37927],[103.77734,1.37911],[103.77726,1.37893],[103.77707,1.37887],[103.77706,1.37882],[103.7773,1.37876],[103.77761,1.37888],[103.77767,1.37885],[103.77765,1.3788],[103.77755,1.37873],[103.77735,1.37869],[103.7772,1.37862],[103.7771,1.37862],[103.77709,1.37858],[103.77717,1.37852],[103.77728,1.37851],[103.77734,1.37847],[103.77736,1.3784],[103.77745,1.37838],[103.77731,1.37831],[103.77725,1.37832],[103.77714,1.37824],[103.77712,1.37805],[103.77709,1.37801],[103.77711,1.37799],[103.77725,1.37811],[103.7774,1.37818],[103.77744,1.37815],[103.77747,1.37801],[103.77743,1.37794],[103.77736,1.37792],[103.7773,1.3778],[103.77734,1.37766],[103.77732,1.37755]]}},{"type":"Feature","properties":{"kind":"trail","name":"Blue Square Grade Trail","grade":2,"km":0.5,"osm":"w254169450"},"geometry":{"type":"LineString","coordinates":[[103.95147,1.41062],[103.95139,1.41072],[103.95133,1.4107],[103.95109,1.4105],[103.95029,1.40971],[103.95025,1.40963],[103.95032,1.40878],[103.95023,1.40868],[103.95013,1.40866],[103.9499,1.40869],[103.94976,1.40864],[103.9496,1.40819],[103.94959,1.40774],[103.94966,1.4076],[103.9498,1.40748],[103.94978,1.4074]]}},{"type":"Feature","properties":{"kind":"trail","name":null,"grade":2,"km":0.49,"osm":"w258513192"},"geometry":{"type":"LineString","coordinates":[[103.78182,1.37105],[103.78258,1.37089],[103.78289,1.37094],[103.78308,1.37104],[103.78327,1.37106],[103.78345,1.37117],[103.78363,1.37111],[103.78376,1.37096],[103.78412,1.37076],[103.78434,1.3708],[103.78456,1.37074],[103.78484,1.37077],[103.78496,1.37082],[103.78503,1.37096],[103.78512,1.371],[103.7852,1.37096],[103.78524,1.3708],[103.7853,1.37073],[103.78549,1.37068],[103.78563,1.37071],[103.78574,1.37079]]}},{"type":"Feature","properties":{"kind":"trail","name":"Grasshopper","grade":3,"km":0.41,"osm":"w441136652"},"geometry":{"type":"LineString","coordinates":[[103.77827,1.377],[103.77799,1.37707],[103.77783,1.37704],[103.77782,1.377],[103.77792,1.37697],[103.77785,1.37696],[103.77786,1.37694],[103.77804,1.37688],[103.7781,1.37681],[103.77809,1.37677],[103.77805,1.37677],[103.77797,1.37688],[103.7779,1.37691],[103.77783,1.37688],[103.77792,1.37673],[103.77791,1.3767],[103.77781,1.37671],[103.77787,1.37661],[103.77779,1.37659],[103.77759,1.37621],[103.77751,1.37627],[103.77747,1.37636],[103.77758,1.3766],[103.77755,1.37662],[103.77747,1.37657],[103.77743,1.37659],[103.77758,1.37703],[103.77754,1.37717],[103.77765,1.37734]]}},{"type":"Feature","properties":{"kind":"trail","name":"Blue Quail","grade":2,"km":0.41,"osm":"w477055503"},"geometry":{"type":"LineString","coordinates":[[103.77922,1.3753],[103.77911,1.37539],[103.77902,1.37539],[103.77893,1.37553],[103.77876,1.37562],[103.77838,1.37572],[103.7784,1.37578],[103.77863,1.37577],[103.77864,1.37581],[103.7785,1.37587],[103.77834,1.37602],[103.77837,1.37622],[103.77832,1.3769],[103.77814,1.37726],[103.77802,1.37729],[103.77785,1.37726],[103.77765,1.37734],[103.77752,1.37743]]}},{"type":"Feature","properties":{"kind":"trail","name":null,"grade":2,"km":0.36,"osm":"w441136659"},"geometry":{"type":"LineString","coordinates":[[103.78058,1.37789],[103.78053,1.37773],[103.78046,1.37765],[103.78046,1.37748],[103.78031,1.377],[103.78037,1.3766],[103.78049,1.37645],[103.7805,1.37619],[103.78044,1.3758],[103.78055,1.37546],[103.78037,1.37544],[103.78058,1.37507],[103.78068,1.37504]]}},{"type":"Feature","properties":{"kind":"trail","name":"Black Crawler","grade":3,"km":0.35,"osm":"w440459058"},"geometry":{"type":"LineString","coordinates":[[103.77884,1.37753],[103.77874,1.37749],[103.77862,1.37754],[103.77864,1.37742],[103.77873,1.37728],[103.77886,1.37717],[103.77889,1.37704],[103.77919,1.37662],[103.77928,1.37642],[103.77928,1.3762],[103.77917,1.3761],[103.77899,1.37602],[103.77901,1.37594],[103.77916,1.37587],[103.77933,1.37589],[103.77938,1.37585],[103.77936,1.37579],[103.7791,1.37555],[103.77911,1.37539]]}},{"type":"Feature","properties":{"kind":"trail","name":"Little Wings","grade":3,"km":0.35,"osm":"w441136655"},"geometry":{"type":"LineString","coordinates":[[103.78041,1.37221],[103.78035,1.37218],[103.7803,1.37224],[103.78022,1.37261],[103.78017,1.37264],[103.77981,1.37222],[103.77974,1.37233],[103.77988,1.37242],[103.77995,1.37251],[103.78005,1.37255],[103.78018,1.37271],[103.78043,1.37283],[103.78054,1.37282],[103.78068,1.37275],[103.78069,1.3726],[103.78074,1.37253],[103.78077,1.37254],[103.78082,1.3727],[103.78076,1.37285],[103.78091,1.37284]]}},{"type":"Feature","properties":{"kind":"trail","name":null,"grade":2,"km":0.33,"osm":"w440459052"},"geometry":{"type":"LineString","coordinates":[[103.7807,1.37494],[103.78051,1.37494],[103.78031,1.37511],[103.78006,1.37516],[103.77997,1.37538],[103.78015,1.37534],[103.78019,1.3754],[103.77994,1.3756],[103.77993,1.37599],[103.77983,1.37593],[103.77975,1.37576],[103.77932,1.37531],[103.77922,1.3753]]}},{"type":"Feature","properties":{"kind":"trail","name":null,"grade":2,"km":0.3,"osm":"w488968898"},"geometry":{"type":"LineString","coordinates":[[103.77822,1.37805],[103.77848,1.37781],[103.77867,1.37769],[103.77903,1.37762],[103.77981,1.37774],[103.78004,1.37784],[103.7803,1.37803],[103.78042,1.37806],[103.7805,1.37802],[103.78061,1.37785]]}},{"type":"Feature","properties":{"kind":"trail","name":"Watchover Blue","grade":2,"km":0.24,"osm":"w440459054"},"geometry":{"type":"LineString","coordinates":[[103.77848,1.37781],[103.77867,1.37781],[103.77877,1.37785],[103.779,1.37783],[103.77941,1.37772],[103.7797,1.37786],[103.77995,1.3779],[103.78011,1.37804],[103.78026,1.37809],[103.7805,1.37826]]}},{"type":"Feature","properties":{"kind":"trail","name":"Side Step","grade":3,"km":0.23,"osm":"w441136651"},"geometry":{"type":"LineString","coordinates":[[103.77837,1.37622],[103.77847,1.37612],[103.77859,1.37608],[103.77876,1.37612],[103.77878,1.37622],[103.7787,1.3763],[103.77881,1.37679],[103.77876,1.37682],[103.77869,1.37679],[103.77864,1.37683],[103.77863,1.37694],[103.77859,1.37697],[103.77856,1.37692],[103.77853,1.37693],[103.77852,1.37704],[103.77848,1.37703],[103.77844,1.37691],[103.7783,1.37693]]}},{"type":"Feature","properties":{"kind":"trail","name":"Cubs","grade":2,"km":0.23,"osm":"w477055509"},"geometry":{"type":"LineString","coordinates":[[103.78063,1.37179],[103.78072,1.37177],[103.78068,1.37162],[103.78075,1.37159],[103.78077,1.37169],[103.78099,1.3719],[103.78104,1.3721],[103.78101,1.37267],[103.78084,1.37296],[103.78066,1.37309]]}},{"type":"Feature","properties":{"kind":"trail","name":"Black Diamond Grade Trail","grade":3,"km":0.21,"osm":"w314331316"},"geometry":{"type":"LineString","coordinates":[[103.95241,1.41168],[103.95251,1.41136],[103.95232,1.41097],[103.95223,1.41096],[103.95201,1.41101],[103.95189,1.41094],[103.95183,1.41081],[103.95177,1.41079],[103.95152,1.41084],[103.95137,1.41078]]}},{"type":"Feature","properties":{"kind":"trail","name":"Tender Foot","grade":1,"km":0.21,"osm":"w441136654"},"geometry":{"type":"LineString","coordinates":[[103.7803,1.37162],[103.78063,1.37179],[103.78061,1.37216],[103.78054,1.37217],[103.78049,1.37223],[103.78045,1.37241],[103.78039,1.37239],[103.78042,1.37212],[103.78036,1.37198],[103.78019,1.37189],[103.78008,1.37177]]}},{"type":"Feature","properties":{"kind":"trail","name":null,"grade":2,"km":0.19,"osm":"w477055508"},"geometry":{"type":"LineString","coordinates":[[103.78066,1.37309],[103.78061,1.37313],[103.78028,1.37318],[103.78081,1.37341],[103.7807,1.37353],[103.78075,1.37359],[103.7807,1.37368],[103.78075,1.37379],[103.78096,1.37388]]}},{"type":"Feature","properties":{"kind":"trail","name":null,"grade":2,"km":0.16,"osm":"w441136657"},"geometry":{"type":"LineString","coordinates":[[103.78096,1.37388],[103.781,1.37376],[103.7809,1.37378],[103.78087,1.37373],[103.78105,1.37346],[103.78114,1.37319],[103.78105,1.37314],[103.78086,1.37317],[103.78066,1.37309]]}},{"type":"Feature","properties":{"kind":"trail","name":"Car Park to Chestnut South Connector","grade":2,"km":0.14,"osm":"w440459049"},"geometry":{"type":"LineString","coordinates":[[103.78009,1.37115],[103.78013,1.37123],[103.78024,1.37128],[103.78014,1.37134],[103.78033,1.3715],[103.7803,1.37162],[103.78018,1.37167],[103.78008,1.37177],[103.77981,1.37177]]}},{"type":"Feature","properties":{"kind":"trail","name":"Grasshopper","grade":3,"km":0.13,"osm":"w440459053"},"geometry":{"type":"LineString","coordinates":[[103.77848,1.37781],[103.77843,1.37778],[103.77832,1.37782],[103.77818,1.3777],[103.77817,1.37763],[103.77828,1.37751],[103.77827,1.37737],[103.77839,1.37707],[103.77827,1.377]]}},{"type":"Feature","properties":{"kind":"trail","name":null,"grade":2,"km":0.13,"osm":"w477055507"},"geometry":{"type":"LineString","coordinates":[[103.78103,1.37397],[103.78085,1.37448],[103.78085,1.37465],[103.78075,1.37475],[103.78068,1.37504]]}},{"type":"Feature","properties":{"kind":"trail","name":null,"grade":2,"km":0.08,"osm":"w314668487"},"geometry":{"type":"LineString","coordinates":[[103.78211,1.36911],[103.78229,1.3692],[103.78234,1.3694],[103.78231,1.36948],[103.78222,1.36957],[103.78213,1.36956]]}},{"type":"Feature","properties":{"kind":"trail","name":null,"grade":2,"km":0.07,"osm":"w477055506"},"geometry":{"type":"LineString","coordinates":[[103.7796,1.37619],[103.77953,1.37585],[103.77955,1.37557]]}},{"type":"Feature","properties":{"kind":"trail","name":null,"grade":2,"km":0.05,"osm":"w441136661"},"geometry":{"type":"LineString","coordinates":[[103.7805,1.37802],[103.78046,1.37794],[103.78045,1.37779],[103.78037,1.37763]]}},{"type":"Feature","properties":{"kind":"trail","name":"Black Diamond Grade Trail","grade":3,"km":0.04,"osm":"w1184952296"},"geometry":{"type":"LineString","coordinates":[[103.95364,1.41437],[103.9535,1.41401]]}},{"type":"Feature","properties":{"kind":"trail","name":"Chestnut Nature Park South Biking Trail","grade":2,"km":0.02,"osm":"w411860991"},"geometry":{"type":"LineString","coordinates":[[103.77998,1.37097],[103.78002,1.37089],[103.78001,1.37083]]}},{"type":"Feature","properties":{"kind":"trail","name":null,"grade":2,"km":0.01,"osm":"w488968899"},"geometry":{"type":"LineString","coordinates":[[103.78098,1.37391],[103.78103,1.37397]]}},{"type":"Feature","properties":{"kind":"trail","name":null,"grade":2,"km":0,"osm":"w488968900"},"geometry":{"type":"LineString","coordinates":[[103.78096,1.37388],[103.78098,1.37391]]}}]}